BEIJING 1               
1 28890U 05043A   22324.29827401  .00000275  00000+0  64765-4 0  9990
2 28890  98.1363  84.0061 0016086  50.2194 310.0440 14.61545336909907
HJ-1A                   
1 33320U 08041A   22324.54706011  .00000407  00000+0  62982-4 0  9992
2 33320  97.6644 350.1850 0022521  84.1383 276.2394 14.77991461765448
HJ-1B                   
1 33321U 08041B   22324.56581772  .00000906  00000+0  13093-3 0  9992
2 33321  97.6798 354.0811 0035586 101.9372 258.5829 14.78033770765447
YAOGAN 4                
1 33446U 08061A   22324.41588679  .00000634  00000+0  95578-4 0  9996
2 33446  97.8315 259.9039 0016081 354.8048   5.2994 14.77584969752621
DEIMOS-1                
1 35681U 09041A   22324.52610240  .00000381  00000+0  67768-4 0  9999
2 35681  97.6951 167.4644 0002896  82.5367 277.6179 14.72177635714734
UK-DMC 2                
1 35683U 09041C   22324.48119533  .00000630  00000+0  10873-3 0  9996
2 35683  97.7095 129.2473 0001720  94.8351 265.3056 14.71600540714458
RISAT 1                 
1 38248U 12017A   22324.54008591  .00003141  00000+0  18143-3 0  9999
2 38248  97.5505 334.2731 0005772  83.6856 276.5032 15.13032705582432
DMC3-FM1                
1 40715U 15032A   22324.54744268  .00000498  00000+0  68844-4 0  9995
2 40715  97.8235 208.1123 0006598  23.3306 336.8180 14.82284184396419
DMC3-FM2                
1 40716U 15032B   22324.50322432  .00000502  00000+0  69389-4 0  9998
2 40716  97.8279 208.7917 0008607  23.4394 336.7182 14.82277104396411
DMC3-FM3                
1 40717U 15032C   22324.52358111  .00000985  00000+0  12978-3 0  9990
2 40717  97.8314 209.7931 0009948  19.7718 340.3818 14.82276647396414
